{"type":"FeatureCollection","features":[{"type":"Feature","id":"way/437479913","properties":{"type":"way","id":437479913,"tags":{"ALAND":"2045751","AWATER":"0","FMMP_modified":"no","FMMP_reviewed":"yes","Tiger:MTFCC":"K1237","addr:city":"Avenal","addr:country":"US","addr:county":"Kings","addr:housenumber":"1","addr:postcode":"93204","addr:state":"CA","addr:street":"Kings Way","amenity":"prison","attribution":"Farmland Mapping and Monitoring Program","barrier":"fence","name":"Avenal State Prison","operator":"California Department of Corrections and Rehabilitation","operator:wikidata":"Q5020415","phone":"+1 559 386 0587","short_name":"ASP","source":"Bing","tiger:COUNTYFP":"031","tiger:STATEFP":"06","website":"https://www.cdcr.ca.gov/Facilities_Locator/ASP.html"},"relations":[],"meta":{},"name":"Avenal State Prison"},"geometry":{"type":"Polygon","coordinates":[[[-120.1277921,35.9752658],[-120.127835,35.974943],[-120.1266472,35.9723781],[-120.1266882,35.9723942],[-120.1267287,35.9723266],[-120.1266847,35.9723093],[-120.1267351,35.972225],[-120.1265643,35.9721581],[-120.1264263,35.9721041],[-120.1242858,35.9700822],[-120.1239424,35.9699628],[-120.1205957,35.9701305],[-120.1203161,35.9702787],[-120.1188335,35.9726285],[-120.1187262,35.9730941],[-120.1190655,35.9757],[-120.119272,35.97598],[-120.1219006,35.9774581],[-120.1224625,35.9776133],[-120.1257201,35.9776839],[-120.1260057,35.9775612],[-120.1277921,35.9752658]]]}}]}