{"type":"FeatureCollection","features":[{"type":"Feature","id":"way/421706780","properties":{"type":"way","id":421706780,"tags":{"addr:city":"Deer Lodge","addr:country":"US","addr:housenumber":"400","addr:postcode":"59722","addr:state":"MT","addr:street":"Conley Lake Road","amenity":"prison","end_date":"1979","fax":"+1 406 846 2950","name":"Montana State Prison","operator":"Montana Department of Corrections","phone":"+1 406 846 1320","short_name":"MSP","source":"Bing","start_date":"1974","website":"https://cor.mt.gov/Adult/MSP"},"relations":[],"meta":{},"name":"Montana State Prison"},"geometry":{"type":"Polygon","coordinates":[[[-112.8057992,46.3858556],[-112.8058039,46.3856254],[-112.8025301,46.383345],[-112.8025311,46.3832318],[-112.8027469,46.3832323],[-112.8027481,46.3829414],[-112.8027486,46.3828474],[-112.8026748,46.3828472],[-112.8026751,46.3827949],[-112.8025337,46.3827946],[-112.8025339,46.3827469],[-112.8025373,46.3826386],[-112.8029092,46.3826382],[-112.803115,46.3826372],[-112.8031139,46.3825277],[-112.8031134,46.3824741],[-112.803125,46.3798611],[-112.8028633,46.3796598],[-112.7995056,46.3796608],[-112.7992268,46.3798502],[-112.7992239,46.3807233],[-112.7957861,46.3807135],[-112.7957589,46.3825997],[-112.7989947,46.3826078],[-112.7989905,46.3827279],[-112.7989895,46.3827808],[-112.7990717,46.3827799],[-112.7992262,46.3827812],[-112.7992511,46.3856222],[-112.7995814,46.3858461],[-112.8057992,46.3858556]]]}}]}