{"type":"FeatureCollection","features":[{"type":"Feature","id":"way/439432207","properties":{"type":"way","id":439432207,"tags":{"addr:city":"Carson City","addr:country":"US","addr:housenumber":"1721","addr:postcode":"89701","addr:state":"NV","addr:street":"Snyder Avenue","amenity":"prison","ele":"1418","gnis:feature_id":"860729","name":"Northern Nevada Correctional Center","operator":"Nevada Department of Corrections","operator:wikidata":"Q7003410","phone":"+1 775 887 9297","short_name":"NNCC","website":"https://doc.nv.gov/Facilities/NNCC_Facility/","wikipedia":"en:Northern Nevada Correctional Center"},"relations":[],"meta":{},"name":"Northern Nevada Correctional Center"},"geometry":{"type":"Polygon","coordinates":[[[-119.7415667,39.1109008],[-119.7464343,39.11092],[-119.7464336,39.1097426],[-119.7464712,39.1097186],[-119.7464691,39.1077987],[-119.7466307,39.1077987],[-119.7466294,39.1077052],[-119.7466906,39.1077057],[-119.7466921,39.107592],[-119.7466757,39.1075919],[-119.7466761,39.1075612],[-119.7465469,39.1075602],[-119.7465467,39.1075728],[-119.7464886,39.1075724],[-119.7464961,39.107014],[-119.7439304,39.1069984],[-119.7439381,39.1062403],[-119.7429723,39.1062344],[-119.7429644,39.1070203],[-119.7427938,39.1068683],[-119.7415687,39.1068663],[-119.7415667,39.1109008]]]}}]}